NORAD_CAT_ID,OBJECT_NAME,OBJECT_TYPE,EPOCH,MEAN_MOTION,ECCENTRICITY,INCLINATION,RA_OF_ASC_NODE,ARG_OF_PERICENTER,MEAN_ANOMALY,BSTAR,MEAN_MOTION_DOT,MEAN_MOTION_DDOT,TLE_LINE0,TLE_LINE1,TLE_LINE2,SEMIMAJOR_AXIS,PERIOD,APOGEE,PERIGEE,DECAYED
52998.0,STARLINK-4254,PAYLOAD,2023-07-27 10:34:06,15.08828299,0.0001097,53.2161,66.8075,104.7637,255.3477,1.2181e-05,-9.4e-07,0.0,0 STARLINK-4254,1 52998U 22076N   23208.44034787 -.00000094  00000-0  12181-4 0  9993,2 52998  53.2161  66.8075 0001097 104.7637 255.3477 15.08828299 58480,6917.916,95.438,540.54,539.022,0.0
52998.0,STARLINK-4254,PAYLOAD,2023-07-27 21:41:48,15.08831118,8.85e-05,53.217,64.725,101.8624,258.2467,-7.0994e-05,-1.417e-05,0.0,0 STARLINK-4254,1 52998U 22076N   23208.90403268 -.00001417  00000-0 -70994-4 0  9995,2 52998  53.2170  64.7250 0000885 101.8624 258.2467 15.08831118 58553,6917.908,95.438,540.385,539.16,0.0
52998.0,STARLINK-4254,PAYLOAD,2023-07-28 00:52:34,15.08833811,9.26e-05,53.2169,64.1297,104.2053,255.9042,-4.4132e-05,-9.9e-06,0.0,0 STARLINK-4254,1 52998U 22076N   23209.03651062 -.00000990  00000-0 -44132-4 0  9997,2 52998  53.2169  64.1297 0000926 104.2053 255.9042 15.08833811 58572,6917.899,95.438,540.405,539.124,0.0
52998.0,STARLINK-4254,PAYLOAD,2023-07-28 16:46:25,15.08870735,0.0001143,53.2168,61.1567,108.3124,251.7992,-0.00036905,-6.161e-05,0.0,0 STARLINK-4254,1 52998U 22076N   23209.69890780 -.00006161  00000-0 -36905-3 0  9995,2 52998  53.2168  61.1567 0001143 108.3124 251.7992 15.08870735 59142,6917.786,95.436,540.442,538.861,0.0
52998.0,STARLINK-4254,PAYLOAD,2023-07-28 23:07:57,15.08882213,7.58e-05,53.2171,59.9662,112.2331,247.8741,-0.00039607,-6.593e-05,0.0,0 STARLINK-4254,1 52998U 22076N   23209.96385656 -.00006593  00000-0 -39607-3 0  9997,2 52998  53.2171  59.9662 0000758 112.2331 247.8741 15.08882213 59188,6917.751,95.435,540.141,539.092,0.0
52998.0,STARLINK-4254,PAYLOAD,2023-07-29 08:40:17,15.08821864,0.0001615,53.2171,58.1823,98.5455,261.572,0.00034731,5.241e-05,0.0,0 STARLINK-4254,1 52998U 22076N   23210.36131006  .00005241  00000-0  34731-3 0  9991,2 52998  53.2171  58.1823 0001615  98.5455 261.5720 15.08821864 59246,6917.936,95.439,540.918,538.684,0.0
52998.0,STARLINK-4254,PAYLOAD,2023-07-29 18:12:35,15.08839088,9.78e-05,53.2171,56.3979,104.7453,255.3647,0.00020264,2.939e-05,0.0,0 STARLINK-4254,1 52998U 22076N   23210.75874163  .00002939  00000-0  20264-3 0  9999,2 52998  53.2171  56.3979 0000978 104.7453 255.3647 15.08839088 59300,6917.883,95.438,540.425,539.072,0.0
52998.0,STARLINK-4254,PAYLOAD,2023-07-29 22:58:44,15.08849413,9.54e-05,53.2174,55.5052,109.2787,250.8308,0.0002047,2.972e-05,0.0,0 STARLINK-4254,1 52998U 22076N   23210.95745540  .00002972  00000-0  20470-3 0  9993,2 52998  53.2174  55.5052 0000954 109.2787 250.8308 15.08849413 59330,6917.852,95.437,540.377,539.057,0.0
52998.0,STARLINK-4254,PAYLOAD,2023-07-30 18:03:22,15.08841241,0.0002643,53.2194,51.9283,180.5302,179.5688,-3.2915e-05,-8.12e-06,0.0,0 STARLINK-4254,1 52998U 22076N   23211.75234104 -.00000812  00000-0 -32915-4 0  9992,2 52998  53.2194  51.9283 0002643 180.5302 179.5688 15.08841241 59452,6917.877,95.437,541.57,537.913,0.0
52998.0,STARLINK-4254,PAYLOAD,2023-07-31 19:29:32,15.08848903,9.38e-05,53.2175,47.1778,111.5553,248.5539,6.5725e-05,7.59e-06,0.0,0 STARLINK-4254,1 52998U 22076N   23212.81218038  .00000759  00000-0  65725-4 0  9991,2 52998  53.2175  47.1778 0000938 111.5553 248.5539 15.08848903 59616,6917.853,95.437,540.367,539.069,0.0
52998.0,STARLINK-4254,PAYLOAD,2023-08-01 19:20:19,15.08843762,9.42e-05,53.2177,42.7174,96.3075,263.8025,0.00010142,1.327e-05,0.0,0 STARLINK-4254,1 52998U 22076N   23213.80578338  .00001327  00000-0  10142-3 0  9997,2 52998  53.2177  42.7174 0000942  96.3075 263.8025 15.08843762 59767,6917.869,95.437,540.386,539.082,0.0
52998.0,STARLINK-4254,PAYLOAD,2023-08-02 17:35:43,15.08836078,9.48e-05,53.2178,38.5547,97.1774,262.9326,0.00014311,1.99e-05,0.0,0 STARLINK-4254,1 52998U 22076N   23214.73314798  .00001990  00000-0  14311-3 0  9996,2 52998  53.2178  38.5547 0000948  97.1774 262.9326 15.08836078 59908,6917.892,95.438,540.413,539.102,0.0
52998.0,STARLINK-4254,PAYLOAD,2023-08-02 19:11:06,15.08847763,9.24e-05,53.2179,38.2567,100.2595,259.8501,3.2312e-05,2.27e-06,0.0,0 STARLINK-4254,1 52998U 22076N   23214.79938260  .00000227  00000-0  32312-4 0  9992,2 52998  53.2179  38.2567 0000924 100.2595 259.8501 15.08847763 59913,6917.857,95.437,540.361,539.082,0.0
52998.0,STARLINK-4254,PAYLOAD,2023-08-03 11:04:58,15.08837525,9.66e-05,53.2179,35.2839,91.2487,268.8616,2.4671e-05,1.05e-06,0.0,0 STARLINK-4254,1 52998U 22076N   23215.46179057  .00000105  00000-0  24671-4 0  9992,2 52998  53.2179  35.2839 0000966  91.2487 268.8616 15.08837525 60012,6917.888,95.438,540.421,539.085,0.0
52998.0,STARLINK-4254,PAYLOAD,2023-08-04 10:55:46,15.08829177,9.47e-05,53.2182,30.8242,88.462,271.6481,7.7615e-06,-1.64e-06,0.0,0 STARLINK-4254,1 52998U 22076N   23216.45539907 -.00000164  00000-0  77615-5 0  9999,2 52998  53.2182  30.8242 0000947  88.4620 271.6481 15.08829177 60163,6917.913,95.438,540.434,539.123,0.0
52998.0,STARLINK-4254,PAYLOAD,2023-08-05 18:43:27,15.08857362,9.96e-05,53.2184,24.8776,74.0974,286.0128,0.00026305,3.903e-05,0.0,0 STARLINK-4254,1 52998U 22076N   23217.78017758  .00003903  00000-0  26305-3 0  9992,2 52998  53.2184  24.8776 0000996  74.0974 286.0128 15.08857362 60364,6917.827,95.436,540.381,539.003,0.0
52998.0,STARLINK-4254,PAYLOAD,2023-08-06 04:15:47,15.0883746,9.67e-05,53.2184,23.093,93.8607,266.2496,0.00013059,1.791e-05,0.0,0 STARLINK-4254,1 52998U 22076N   23218.17763386  .00001791  00000-0  13059-3 0  9996,2 52998  53.2184  23.0930 0000967  93.8607 266.2496 15.08837460 60429,6917.888,95.438,540.422,539.084,0.0
52998.0,STARLINK-4254,PAYLOAD,2023-08-06 10:37:20,15.08817663,9.45e-05,53.2172,21.9034,106.9945,253.1151,-0.00022344,-3.84e-05,0.0,0 STARLINK-4254,1 52998U 22076N   23218.44260317 -.00003840  00000-0 -22344-3 0  9998,2 52998  53.2172  21.9034 0000945 106.9945 253.1151 15.08817663 60465,6917.949,95.439,540.467,539.16,0.0
52998.0,STARLINK-4254,PAYLOAD,2023-08-06 18:34:16,15.08824114,8.75e-05,53.2173,20.4172,94.5814,265.5278,-0.00024059,-4.113e-05,0.0,0 STARLINK-4254,1 52998U 22076N   23218.77379859 -.00004113  00000-0 -24059-3 0  9995,2 52998  53.2173  20.4172 0000875  94.5814 265.5278 15.08824114 60514,6917.929,95.439,540.399,539.189,0.0
52998.0,STARLINK-4254,PAYLOAD,2023-08-07 16:49:40,15.08846573,8.33e-05,53.2172,16.2543,99.4498,260.6588,0.0013132,0.00020677,0.0,0 STARLINK-4254,1 52998U 22076N   23219.70116814  .00020677  00000-0  13132-2 0  9999,2 52998  53.2172  16.2543 0000833  99.4498 260.6588 15.08846573 60652,6917.86,95.437,540.302,539.149,0.0
52998.0,STARLINK-4254,PAYLOAD,2023-08-08 10:18:55,15.08858452,8.14e-05,53.2174,12.9835,94.0643,266.0442,0.00089498,0.00013992,0.0,0 STARLINK-4254,1 52998U 22076N   23220.42980453  .00013992  00000-0  89498-3 0  9999,2 52998  53.2174  12.9835 0000814  94.0643 266.0442 15.08858452 60763,6917.824,95.436,540.252,539.126,0.0
52998.0,STARLINK-4254,PAYLOAD,2023-08-09 10:09:41,15.08843058,6.48e-05,53.2174,8.5232,29.77,330.3329,-1.221e-05,-4.82e-06,0.0,0 STARLINK-4254,1 52998U 22076N   23221.42339991 -.00000482  00000-0 -12210-4 0  9996,2 52998  53.2174   8.5232 0000648  29.7700 330.3329 15.08843058 60911,6917.871,95.437,540.184,539.288,0.0
52998.0,STARLINK-4254,PAYLOAD,2023-08-09 16:31:14,15.08850562,7.62e-05,53.2174,7.3337,95.8312,264.2767,0.00018098,2.595e-05,0.0,0 STARLINK-4254,1 52998U 22076N   23221.68835733  .00002595  00000-0  18098-3 0  9993,2 52998  53.2174   7.3337 0000762  95.8312 264.2767 15.08850562 60957,6917.848,95.437,540.24,539.186,0.0
52998.0,STARLINK-4254,PAYLOAD,2023-08-10 10:00:28,15.088414,7.61e-05,53.2174,4.0624,95.1487,264.9592,8.0025e-05,9.86e-06,0.0,0 STARLINK-4254,1 52998U 22076N   23222.41699879  .00000986  00000-0  80025-4 0  9996,2 52998  53.2174   4.0624 0000761  95.1487 264.9592 15.08841400 61062,6917.876,95.437,540.268,539.215,0.0
52998.0,STARLINK-4254,PAYLOAD,2023-08-11 17:48:11,15.08850246,8.35e-05,53.2175,358.1157,94.2187,265.89,0.00035528,5.373e-05,0.0,0 STARLINK-4254,1 52998U 22076N   23223.74179468  .00005373  00000-0  35528-3 0  9992,2 52998  53.2175 358.1157 0000835  94.2187 265.8900 15.08850246 61269,6917.849,95.437,540.292,539.136,0.0
52998.0,STARLINK-4254,PAYLOAD,2023-08-12 08:06:39,15.08832314,7.52e-05,53.2176,355.439,82.9526,277.1552,-0.00015029,-2.678e-05,0.0,0 STARLINK-4254,1 52998U 22076N   23224.33795971 -.00002678  00000-0 -15029-3 0  9992,2 52998  53.2176 355.4390 0000752  82.9526 277.1552 15.08832314 61353,6917.904,95.438,540.289,539.249,0.0
52998.0,STARLINK-4254,PAYLOAD,2023-08-12 17:38:58,15.08844236,8.32e-05,53.2173,353.6554,84.9432,275.1655,8.8754e-05,1.125e-05,0.0,0 STARLINK-4254,1 52998U 22076N   23224.73539620  .00001125  00000-0  88754-4 0  9993,2 52998  53.2173 353.6554 0000832  84.9432 275.1655 15.08844236 61414,6917.867,95.437,540.308,539.157,0.0
52998.0,STARLINK-4254,PAYLOAD,2023-08-13 01:35:54,15.08834535,0.0001766,53.2179,352.1669,80.9963,279.1229,-4.6956e-05,-1.035e-05,0.0,0 STARLINK-4254,1 52998U 22076N   23225.06660422 -.00001035  00000-0 -46956-4 0  9995,2 52998  53.2179 352.1669 0001766  80.9963 279.1229 15.08834535 61460,6917.897,95.438,540.984,538.54,0.0
52998.0,STARLINK-4254,PAYLOAD,2023-08-14 01:26:41,15.0884091,8.39e-05,53.2173,347.7075,79.9307,280.178,6.1725e-05,6.95e-06,0.0,0 STARLINK-4254,1 52998U 22076N   23226.06020117  .00000695  00000-0  61725-4 0  9997,2 52998  53.2173 347.7075 0000839  79.9307 280.1780 15.08840910 61610,6917.878,95.437,540.323,539.162,0.0
52998.0,STARLINK-4254,PAYLOAD,2023-08-15 10:49:47,15.08839068,9.05e-05,53.217,341.4645,74.9296,285.1796,0.00014154,1.966e-05,0.0,0 STARLINK-4254,1 52998U 22076N   23227.45124481  .00001966  00000-0  14154-3 0  9995,2 52998  53.2170 341.4645 0000905  74.9296 285.1796 15.08839068 61824,6917.883,95.438,540.374,539.122,0.0
